start=new Date('2023-01-03T00:00:00.000Z').valueOf();
sats=[{"FILE":"3729873","MEAN_ELEMENT_THEORY":"SGP4","SEMIMAJOR_AXIS":"6917.862","APOAPSIS":"541.009","REF_FRAME":"TEME","TLE_LINE1":"1 49424U 21104S   23002.83898658  .00012641  00000-0  81075-3 0  9991","ARG_OF_PERICENTER":"44.1947","DECAY_DATE":null,"NORAD_CAT_ID":"49424","MEAN_MOTION":"15.08846143","EPOCH":"2023-01-02T20:08:08.440512","CLASSIFICATION_TYPE":"U","OBJECT_NAME":"STARLINK-3135","PERIOD":"95.437","MEAN_ANOMALY":"315.9193","OBJECT_ID":"2021-104S","CENTER_NAME":"EARTH","COUNTRY_CODE":"US","PERIAPSIS":"538.444","GP_ID":"222065565","INCLINATION":"53.2161","OBJECT_TYPE":"PAYLOAD","EPHEMERIS_TYPE":"0","LAUNCH_DATE":"2021-11-13","ELEMENT_SET_NO":"999","SITE":"AFETR","BSTAR":"0.00081075000000","MEAN_MOTION_DOT":"0.00012641","ECCENTRICITY":"0.00018540","TLE_LINE2":"2 49424  53.2161  44.8798 0001854  44.1947 315.9193 15.08846143 63224","RCS_SIZE":"LARGE","TIME_SYSTEM":"UTC","REV_AT_EPOCH":"6322","MEAN_MOTION_DDOT":"0.0000000000000","RA_OF_ASC_NODE":"44.8798"},{"LAUNCH_DATE":"2021-11-13","ELEMENT_SET_NO":"999","SITE":"AFETR","PERIAPSIS":"537.834","COUNTRY_CODE":"US","GP_ID":"222064313","INCLINATION":"53.2166","EPHEMERIS_TYPE":"0","OBJECT_TYPE":"PAYLOAD","RCS_SIZE":"LARGE","TIME_SYSTEM":"UTC","REV_AT_EPOCH":"6323","MEAN_MOTION_DDOT":"0.0000000000000","RA_OF_ASC_NODE":"44.9484","BSTAR":"0.00071093000000","ECCENTRICITY":"0.00027540","MEAN_MOTION_DOT":"0.00011045","TLE_LINE2":"2 49425  53.2166  44.9484 0002754  26.6314 333.4819 15.08842166 63238","ARG_OF_PERICENTER":"26.6314","TLE_LINE1":"1 49425U 21104T   23002.82426189  .00011045  00000-0  71093-3 0  9993","APOAPSIS":"541.644","SEMIMAJOR_AXIS":"6917.874","MEAN_ELEMENT_THEORY":"SGP4","FILE":"3729873","REF_FRAME":"TEME","MEAN_ANOMALY":"333.4819","OBJECT_ID":"2021-104T","CENTER_NAME":"EARTH","NORAD_CAT_ID":"49425","DECAY_DATE":null,"MEAN_MOTION":"15.08842166","CLASSIFICATION_TYPE":"U","EPOCH":"2023-01-02T19:46:56.227296","OBJECT_NAME":"STARLINK-3139","PERIOD":"95.437"},{"REF_FRAME":"TEME","FILE":"3729873","MEAN_ELEMENT_THEORY":"SGP4","APOAPSIS":"541.651","SEMIMAJOR_AXIS":"6917.882","TLE_LINE1":"1 49426U 21104U   23002.83162377  .00005812  00000-0  38295-3 0  9993","ARG_OF_PERICENTER":"27.3085","PERIOD":"95.438","OBJECT_NAME":"STARLINK-3114","CLASSIFICATION_TYPE":"U","EPOCH":"2023-01-02T19:57:32.293728","MEAN_MOTION":"15.08839316","DECAY_DATE":null,"NORAD_CAT_ID":"49426","CENTER_NAME":"EARTH","MEAN_ANOMALY":"332.8052","OBJECT_ID":"2021-104U","OBJECT_TYPE":"PAYLOAD","EPHEMERIS_TYPE":"0","INCLINATION":"53.2158","GP_ID":"222064563","COUNTRY_CODE":"US","PERIAPSIS":"537.844","SITE":"AFETR","ELEMENT_SET_NO":"999","LAUNCH_DATE":"2021-11-13","TLE_LINE2":"2 49426  53.2158  44.9120 0002752  27.3085 332.8052 15.08839316 63222","MEAN_MOTION_DOT":"0.00005812","ECCENTRICITY":"0.00027520","BSTAR":"0.00038295000000","RA_OF_ASC_NODE":"44.9120","MEAN_MOTION_DDOT":"0.0000000000000","REV_AT_EPOCH":"6322","TIME_SYSTEM":"UTC","RCS_SIZE":"LARGE"},{"BSTAR":"0.00018993000000","ECCENTRICITY":"0.00024340","MEAN_MOTION_DOT":"0.00002734","TLE_LINE2":"2 49427  53.2158  44.9650 0002434  25.2640 334.8471 15.08824113 63239","RCS_SIZE":"LARGE","TIME_SYSTEM":"UTC","MEAN_MOTION_DDOT":"0.0000000000000","REV_AT_EPOCH":"6323","RA_OF_ASC_NODE":"44.9650","PERIAPSIS":"538.110","COUNTRY_CODE":"US","GP_ID":"222065813","INCLINATION":"53.2158","EPHEMERIS_TYPE":"0","OBJECT_TYPE":"PAYLOAD","LAUNCH_DATE":"2021-11-13","ELEMENT_SET_NO":"999","SITE":"AFETR","DECAY_DATE":null,"NORAD_CAT_ID":"49427","EPOCH":"2023-01-02T19:41:39.255936","CLASSIFICATION_TYPE":"U","MEAN_MOTION":"15.08824113","OBJECT_NAME":"STARLINK-3131","PERIOD":"95.439","MEAN_ANOMALY":"334.8471","OBJECT_ID":"2021-104V","CENTER_NAME":"EARTH","APOAPSIS":"541.478","SEMIMAJOR_AXIS":"6917.929","FILE":"3729873","MEAN_ELEMENT_THEORY":"SGP4","REF_FRAME":"TEME","ARG_OF_PERICENTER":"25.2640","TLE_LINE1":"1 49427U 21104V   23002.82059324  .00002734  00000-0  18993-3 0  9993"},{"LAUNCH_DATE":"2021-11-13","ELEMENT_SET_NO":"999","SITE":"AFETR","PERIAPSIS":"537.776","COUNTRY_CODE":"US","GP_ID":"222066064","INCLINATION":"53.2193","EPHEMERIS_TYPE":"0","OBJECT_TYPE":"PAYLOAD","RCS_SIZE":"LARGE","TIME_SYSTEM":"UTC","REV_AT_EPOCH":"6323","MEAN_MOTION_DDOT":"0.0000000000000","RA_OF_ASC_NODE":"45.0105","BSTAR":"0.00000724740000","ECCENTRICITY":"0.00028760","MEAN_MOTION_DOT":"-0.00000173","TLE_LINE2":"2 49428  53.2193  45.0105 0002876  26.7751 333.3389 15.08833299 63232","ARG_OF_PERICENTER":"26.7751","TLE_LINE1":"1 49428U 21104W   23002.81048488 -.00000173  00000-0  72474-5 0  9994","APOAPSIS":"541.755","SEMIMAJOR_AXIS":"6917.901","MEAN_ELEMENT_THEORY":"SGP4","FILE":"3729873","REF_FRAME":"TEME","MEAN_ANOMALY":"333.3389","OBJECT_ID":"2021-104W","CENTER_NAME":"EARTH","NORAD_CAT_ID":"49428","DECAY_DATE":null,"CLASSIFICATION_TYPE":"U","EPOCH":"2023-01-02T19:27:05.893632","MEAN_MOTION":"15.08833299","OBJECT_NAME":"STARLINK-3121","PERIOD":"95.438"},{"BSTAR":"0.00088151000000","TLE_LINE2":"2 49430  53.2171  44.9879 0002670  28.5720 331.5418 15.08840208 63236","ECCENTRICITY":"0.00026700","MEAN_MOTION_DOT":"0.00013769","TIME_SYSTEM":"UTC","RCS_SIZE":"LARGE","RA_OF_ASC_NODE":"44.9879","REV_AT_EPOCH":"6323","MEAN_MOTION_DDOT":"0.0000000000000","GP_ID":"222064813","PERIAPSIS":"537.898","COUNTRY_CODE":"US","EPHEMERIS_TYPE":"0","OBJECT_TYPE":"PAYLOAD","INCLINATION":"53.2171","ELEMENT_SET_NO":"999","LAUNCH_DATE":"2021-11-13","SITE":"AFETR","MEAN_MOTION":"15.08840208","EPOCH":"2023-01-02T19:36:20.706912","CLASSIFICATION_TYPE":"U","DECAY_DATE":null,"NORAD_CAT_ID":"49430","PERIOD":"95.438","OBJECT_NAME":"STARLINK-3138","OBJECT_ID":"2021-104Y","MEAN_ANOMALY":"331.5418","CENTER_NAME":"EARTH","APOAPSIS":"541.592","SEMIMAJOR_AXIS":"6917.880","MEAN_ELEMENT_THEORY":"SGP4","FILE":"3729873","REF_FRAME":"TEME","ARG_OF_PERICENTER":"28.5720","TLE_LINE1":"1 49430U 21104Y   23002.81690633  .00013769  00000-0  88151-3 0  9993"},{"LAUNCH_DATE":"2021-11-13","ELEMENT_SET_NO":"999","SITE":"AFETR","PERIAPSIS":"537.926","COUNTRY_CODE":"US","GP_ID":"222065063","INCLINATION":"53.2194","EPHEMERIS_TYPE":"0","OBJECT_TYPE":"PAYLOAD","RCS_SIZE":"LARGE","TIME_SYSTEM":"UTC","REV_AT_EPOCH":"6323","MEAN_MOTION_DDOT":"0.0000000000000","RA_OF_ASC_NODE":"44.8663","BSTAR":"0.00000883930000","ECCENTRICITY":"0.00026000","MEAN_MOTION_DOT":"-0.00000148","TLE_LINE2":"2 49431  53.2194  44.8663 0002600  31.0461 329.0685 15.08846711 63239","ARG_OF_PERICENTER":"31.0461","TLE_LINE1":"1 49431U 21104Z   23002.84360969 -.00000148  00000-0  88393-5 0  9991","APOAPSIS":"541.524","SEMIMAJOR_AXIS":"6917.860","MEAN_ELEMENT_THEORY":"SGP4","FILE":"3729873","REF_FRAME":"TEME","OBJECT_ID":"2021-104Z","MEAN_ANOMALY":"329.0685","CENTER_NAME":"EARTH","DECAY_DATE":null,"NORAD_CAT_ID":"49431","CLASSIFICATION_TYPE":"U","MEAN_MOTION":"15.08846711","EPOCH":"2023-01-02T20:14:47.877216","OBJECT_NAME":"STARLINK-3153","PERIOD":"95.437"},{"LAUNCH_DATE":"2021-11-13","ELEMENT_SET_NO":"999","SITE":"AFETR","PERIAPSIS":"537.863","COUNTRY_CODE":"US","GP_ID":"222065315","INCLINATION":"53.2172","EPHEMERIS_TYPE":"0","OBJECT_TYPE":"PAYLOAD","RCS_SIZE":"LARGE","TIME_SYSTEM":"UTC","MEAN_MOTION_DDOT":"0.0000000000000","REV_AT_EPOCH":"6336","RA_OF_ASC_NODE":"35.1209","BSTAR":"0.00088678000000","ECCENTRICITY":"0.00027250","MEAN_MOTION_DOT":"0.00013853","TLE_LINE2":"2 49432  53.2172  35.1209 0002725  30.9148 329.2005 15.08839035 63366","ARG_OF_PERICENTER":"30.9148","TLE_LINE1":"1 49432U 21104AA  23002.78198251  .00013853  00000-0  88678-3 0  9998","SEMIMAJOR_AXIS":"6917.883","APOAPSIS":"541.633","MEAN_ELEMENT_THEORY":"SGP4","FILE":"3729873","REF_FRAME":"TEME","OBJECT_ID":"2021-104AA","MEAN_ANOMALY":"329.2005","CENTER_NAME":"EARTH","NORAD_CAT_ID":"49432","DECAY_DATE":null,"EPOCH":"2023-01-02T18:46:03.288864","MEAN_MOTION":"15.08839035","CLASSIFICATION_TYPE":"U","OBJECT_NAME":"STARLINK-3158","PERIOD":"95.438"},{"CENTER_NAME":"EARTH","MEAN_ANOMALY":"338.8184","OBJECT_ID":"2021-104AB","OBJECT_NAME":"STARLINK-3079","PERIOD":"95.438","DECAY_DATE":null,"NORAD_CAT_ID":"49433","CLASSIFICATION_TYPE":"U","EPOCH":"2023-01-02T18:46:00.340032","MEAN_MOTION":"15.08835285","ARG_OF_PERICENTER":"21.2929","TLE_LINE1":"1 49433U 21104AB  23002.78194838  .00011665  00000-0  74986-3 0  9992","REF_FRAME":"TEME","SEMIMAJOR_AXIS":"6917.895","APOAPSIS":"541.773","MEAN_ELEMENT_THEORY":"SGP4","FILE":"3729873","REV_AT_EPOCH":"6459","MEAN_MOTION_DDOT":"0.0000000000000","RA_OF_ASC_NODE":"25.1355","RCS_SIZE":"LARGE","TIME_SYSTEM":"UTC","ECCENTRICITY":"0.00029100","MEAN_MOTION_DOT":"0.00011665","TLE_LINE2":"2 49433  53.2175  25.1355 0002910  21.2929 338.8184 15.08835285 64590","BSTAR":"0.00074986000000","SITE":"AFETR","LAUNCH_DATE":"2021-11-13","ELEMENT_SET_NO":"999","INCLINATION":"53.2175","EPHEMERIS_TYPE":"0","OBJECT_TYPE":"PAYLOAD","PERIAPSIS":"537.747","COUNTRY_CODE":"US","GP_ID":"222065566"},{"MEAN_MOTION_DOT":"0.00014126","ECCENTRICITY":"0.00029680","TLE_LINE2":"2 49434  53.2170  44.9991 0002968  24.7724 335.3410 15.08839605 64319","BSTAR":"0.00090383000000","MEAN_MOTION_DDOT":"0.0000000000000","REV_AT_EPOCH":"6431","RA_OF_ASC_NODE":"44.9991","RCS_SIZE":"LARGE","TIME_SYSTEM":"UTC","INCLINATION":"53.2170","OBJECT_TYPE":"PAYLOAD","EPHEMERIS_TYPE":"0","COUNTRY_CODE":"US","PERIAPSIS":"537.693","GP_ID":"222064314","SITE":"AFETR","LAUNCH_DATE":"2021-11-13","ELEMENT_SET_NO":"999","OBJECT_NAME":"STARLINK-3134","PERIOD":"95.438","DECAY_DATE":null,"NORAD_CAT_ID":"49434","EPOCH":"2023-01-02T19:31:02.771328","MEAN_MOTION":"15.08839605","CLASSIFICATION_TYPE":"U","CENTER_NAME":"EARTH","OBJECT_ID":"2021-104AC","MEAN_ANOMALY":"335.3410","REF_FRAME":"TEME","MEAN_ELEMENT_THEORY":"SGP4","FILE":"3729873","SEMIMAJOR_AXIS":"6917.882","APOAPSIS":"541.800","TLE_LINE1":"1 49434U 21104AC  23002.81322652  .00014126  00000-0  90383-3 0  9998","ARG_OF_PERICENTER":"24.7724"}];
